<?xml version="1.0" encoding="UTF-8"?>
<ndm xmlns:xsi="http://www.w3.org/2001/XMLSchema-instance" xsi:noNamespaceSchemaLocation="https://sanaregistry.org/r/ndmxml_unqualified/ndmxml-2.0.0-master-2.0.xsd">
<omm id="CCSDS_OMM_VERS" version="2.0">
<header><CREATION_DATE/><ORIGINATOR/></header><body><segment><metadata><OBJECT_NAME>ONEWEB-0249</OBJECT_NAME><OBJECT_ID>2021-060A</OBJECT_ID><CENTER_NAME>EARTH</CENTER_NAME><REF_FRAME>TEME</REF_FRAME><TIME_SYSTEM>UTC</TIME_SYSTEM><MEAN_ELEMENT_THEORY>SGP4</MEAN_ELEMENT_THEORY></metadata><data><meanElements><EPOCH>2025-01-04T20:57:26.133696</EPOCH><MEAN_MOTION>13.16594561</MEAN_MOTION><ECCENTRICITY>.0001806</ECCENTRICITY><INCLINATION>87.9103</INCLINATION><RA_OF_ASC_NODE>334.0414</RA_OF_ASC_NODE><ARG_OF_PERICENTER>85.3496</ARG_OF_PERICENTER><MEAN_ANOMALY>274.7841</MEAN_ANOMALY></meanElements><tleParameters><EPHEMERIS_TYPE>0</EPHEMERIS_TYPE><CLASSIFICATION_TYPE>U</CLASSIFICATION_TYPE><NORAD_CAT_ID>48967</NORAD_CAT_ID><ELEMENT_SET_NO>999</ELEMENT_SET_NO><REV_AT_EPOCH>17009</REV_AT_EPOCH><BSTAR>-.99042E-3</BSTAR><MEAN_MOTION_DOT>-.366E-5</MEAN_MOTION_DOT><MEAN_MOTION_DDOT>0</MEAN_MOTION_DDOT></tleParameters></data></segment></body></omm>
<omm id="CCSDS_OMM_VERS" version="2.0">
<header><CREATION_DATE/><ORIGINATOR/></header><body><segment><metadata><OBJECT_NAME>ONEWEB-0250</OBJECT_NAME><OBJECT_ID>2021-060B</OBJECT_ID><CENTER_NAME>EARTH</CENTER_NAME><REF_FRAME>TEME</REF_FRAME><TIME_SYSTEM>UTC</TIME_SYSTEM><MEAN_ELEMENT_THEORY>SGP4</MEAN_ELEMENT_THEORY></metadata><data><meanElements><EPOCH>2025-01-04T20:47:12.704928</EPOCH><MEAN_MOTION>13.25696967</MEAN_MOTION><ECCENTRICITY>.0001843</ECCENTRICITY><INCLINATION>87.9103</INCLINATION><RA_OF_ASC_NODE>333.5238</RA_OF_ASC_NODE><ARG_OF_PERICENTER>120.3438</ARG_OF_PERICENTER><MEAN_ANOMALY>239.7880</MEAN_ANOMALY></meanElements><tleParameters><EPHEMERIS_TYPE>0</EPHEMERIS_TYPE><CLASSIFICATION_TYPE>U</CLASSIFICATION_TYPE><NORAD_CAT_ID>48968</NORAD_CAT_ID><ELEMENT_SET_NO>999</ELEMENT_SET_NO><REV_AT_EPOCH>17021</REV_AT_EPOCH><BSTAR>.31345E-3</BSTAR><MEAN_MOTION_DOT>.15E-5</MEAN_MOTION_DOT><MEAN_MOTION_DDOT>0</MEAN_MOTION_DDOT></tleParameters></data></segment></body></omm>
<omm id="CCSDS_OMM_VERS" version="2.0">
<header><CREATION_DATE/><ORIGINATOR/></header><body><segment><metadata><OBJECT_NAME>ONEWEB-0252</OBJECT_NAME><OBJECT_ID>2021-060D</OBJECT_ID><CENTER_NAME>EARTH</CENTER_NAME><REF_FRAME>TEME</REF_FRAME><TIME_SYSTEM>UTC</TIME_SYSTEM><MEAN_ELEMENT_THEORY>SGP4</MEAN_ELEMENT_THEORY></metadata><data><meanElements><EPOCH>2025-01-04T21:43:02.563392</EPOCH><MEAN_MOTION>13.16592744</MEAN_MOTION><ECCENTRICITY>.0001737</ECCENTRICITY><INCLINATION>87.9106</INCLINATION><RA_OF_ASC_NODE>334.0284</RA_OF_ASC_NODE><ARG_OF_PERICENTER>71.4994</ARG_OF_PERICENTER><MEAN_ANOMALY>288.6325</MEAN_ANOMALY></meanElements><tleParameters><EPHEMERIS_TYPE>0</EPHEMERIS_TYPE><CLASSIFICATION_TYPE>U</CLASSIFICATION_TYPE><NORAD_CAT_ID>48970</NORAD_CAT_ID><ELEMENT_SET_NO>999</ELEMENT_SET_NO><REV_AT_EPOCH>17014</REV_AT_EPOCH><BSTAR>.35576E-3</BSTAR><MEAN_MOTION_DOT>.149E-5</MEAN_MOTION_DOT><MEAN_MOTION_DDOT>0</MEAN_MOTION_DDOT></tleParameters></data></segment></body></omm>
<omm id="CCSDS_OMM_VERS" version="2.0">
<header><CREATION_DATE/><ORIGINATOR/></header><body><segment><metadata><OBJECT_NAME>ONEWEB-0253</OBJECT_NAME><OBJECT_ID>2021-060E</OBJECT_ID><CENTER_NAME>EARTH</CENTER_NAME><REF_FRAME>TEME</REF_FRAME><TIME_SYSTEM>UTC</TIME_SYSTEM><MEAN_ELEMENT_THEORY>SGP4</MEAN_ELEMENT_THEORY></metadata><data><meanElements><EPOCH>2025-01-04T23:16:32.762496</EPOCH><MEAN_MOTION>13.16594636</MEAN_MOTION><ECCENTRICITY>.0001518</ECCENTRICITY><INCLINATION>87.9101</INCLINATION><RA_OF_ASC_NODE>334.0232</RA_OF_ASC_NODE><ARG_OF_PERICENTER>85.7536</ARG_OF_PERICENTER><MEAN_ANOMALY>274.3768</MEAN_ANOMALY></meanElements><tleParameters><EPHEMERIS_TYPE>0</EPHEMERIS_TYPE><CLASSIFICATION_TYPE>U</CLASSIFICATION_TYPE><NORAD_CAT_ID>48971</NORAD_CAT_ID><ELEMENT_SET_NO>999</ELEMENT_SET_NO><REV_AT_EPOCH>17008</REV_AT_EPOCH><BSTAR>.61241E-4</BSTAR><MEAN_MOTION_DOT>.36E-6</MEAN_MOTION_DOT><MEAN_MOTION_DDOT>0</MEAN_MOTION_DDOT></tleParameters></data></segment></body></omm>
<omm id="CCSDS_OMM_VERS" version="2.0">
<header><CREATION_DATE/><ORIGINATOR/></header><body><segment><metadata><OBJECT_NAME>ONEWEB-0254</OBJECT_NAME><OBJECT_ID>2021-060F</OBJECT_ID><CENTER_NAME>EARTH</CENTER_NAME><REF_FRAME>TEME</REF_FRAME><TIME_SYSTEM>UTC</TIME_SYSTEM><MEAN_ELEMENT_THEORY>SGP4</MEAN_ELEMENT_THEORY></metadata><data><meanElements><EPOCH>2025-01-04T19:51:19.079424</EPOCH><MEAN_MOTION>13.16597156</MEAN_MOTION><ECCENTRICITY>.0001447</ECCENTRICITY><INCLINATION>87.9104</INCLINATION><RA_OF_ASC_NODE>334.0329</RA_OF_ASC_NODE><ARG_OF_PERICENTER>99.5499</ARG_OF_PERICENTER><MEAN_ANOMALY>260.5796</MEAN_ANOMALY></meanElements><tleParameters><EPHEMERIS_TYPE>0</EPHEMERIS_TYPE><CLASSIFICATION_TYPE>U</CLASSIFICATION_TYPE><NORAD_CAT_ID>48972</NORAD_CAT_ID><ELEMENT_SET_NO>999</ELEMENT_SET_NO><REV_AT_EPOCH>17006</REV_AT_EPOCH><BSTAR>.41658E-3</BSTAR><MEAN_MOTION_DOT>.172E-5</MEAN_MOTION_DOT><MEAN_MOTION_DDOT>0</MEAN_MOTION_DDOT></tleParameters></data></segment></body></omm>
<omm id="CCSDS_OMM_VERS" version="2.0">
<header><CREATION_DATE/><ORIGINATOR/></header><body><segment><metadata><OBJECT_NAME>ONEWEB-0255</OBJECT_NAME><OBJECT_ID>2021-060G</OBJECT_ID><CENTER_NAME>EARTH</CENTER_NAME><REF_FRAME>TEME</REF_FRAME><TIME_SYSTEM>UTC</TIME_SYSTEM><MEAN_ELEMENT_THEORY>SGP4</MEAN_ELEMENT_THEORY></metadata><data><meanElements><EPOCH>2025-01-04T20:46:02.131680</EPOCH><MEAN_MOTION>13.16594746</MEAN_MOTION><ECCENTRICITY>.0001573</ECCENTRICITY><INCLINATION>87.9104</INCLINATION><RA_OF_ASC_NODE>334.0589</RA_OF_ASC_NODE><ARG_OF_PERICENTER>93.2569</ARG_OF_PERICENTER><MEAN_ANOMALY>266.8742</MEAN_ANOMALY></meanElements><tleParameters><EPHEMERIS_TYPE>0</EPHEMERIS_TYPE><CLASSIFICATION_TYPE>U</CLASSIFICATION_TYPE><NORAD_CAT_ID>48973</NORAD_CAT_ID><ELEMENT_SET_NO>999</ELEMENT_SET_NO><REV_AT_EPOCH>17143</REV_AT_EPOCH><BSTAR>-.70468E-3</BSTAR><MEAN_MOTION_DOT>-.257E-5</MEAN_MOTION_DOT><MEAN_MOTION_DDOT>0</MEAN_MOTION_DDOT></tleParameters></data></segment></body></omm>
<omm id="CCSDS_OMM_VERS" version="2.0">
<header><CREATION_DATE/><ORIGINATOR/></header><body><segment><metadata><OBJECT_NAME>ONEWEB-0256</OBJECT_NAME><OBJECT_ID>2021-060H</OBJECT_ID><CENTER_NAME>EARTH</CENTER_NAME><REF_FRAME>TEME</REF_FRAME><TIME_SYSTEM>UTC</TIME_SYSTEM><MEAN_ELEMENT_THEORY>SGP4</MEAN_ELEMENT_THEORY></metadata><data><meanElements><EPOCH>2025-01-04T21:23:38.529024</EPOCH><MEAN_MOTION>13.16606707</MEAN_MOTION><ECCENTRICITY>.0002506</ECCENTRICITY><INCLINATION>87.9148</INCLINATION><RA_OF_ASC_NODE>334.0639</RA_OF_ASC_NODE><ARG_OF_PERICENTER>76.9806</ARG_OF_PERICENTER><MEAN_ANOMALY>283.1605</MEAN_ANOMALY></meanElements><tleParameters><EPHEMERIS_TYPE>0</EPHEMERIS_TYPE><CLASSIFICATION_TYPE>U</CLASSIFICATION_TYPE><NORAD_CAT_ID>48974</NORAD_CAT_ID><ELEMENT_SET_NO>999</ELEMENT_SET_NO><REV_AT_EPOCH>17140</REV_AT_EPOCH><BSTAR>.17373E-2</BSTAR><MEAN_MOTION_DOT>.677E-5</MEAN_MOTION_DOT><MEAN_MOTION_DDOT>0</MEAN_MOTION_DDOT></tleParameters></data></segment></body></omm>
<omm id="CCSDS_OMM_VERS" version="2.0">
<header><CREATION_DATE/><ORIGINATOR/></header><body><segment><metadata><OBJECT_NAME>ONEWEB-0257</OBJECT_NAME><OBJECT_ID>2021-060J</OBJECT_ID><CENTER_NAME>EARTH</CENTER_NAME><REF_FRAME>TEME</REF_FRAME><TIME_SYSTEM>UTC</TIME_SYSTEM><MEAN_ELEMENT_THEORY>SGP4</MEAN_ELEMENT_THEORY></metadata><data><meanElements><EPOCH>2025-01-04T20:20:57.602688</EPOCH><MEAN_MOTION>13.16597627</MEAN_MOTION><ECCENTRICITY>.0001581</ECCENTRICITY><INCLINATION>87.9100</INCLINATION><RA_OF_ASC_NODE>334.0373</RA_OF_ASC_NODE><ARG_OF_PERICENTER>79.3881</ARG_OF_PERICENTER><MEAN_ANOMALY>280.7428</MEAN_ANOMALY></meanElements><tleParameters><EPHEMERIS_TYPE>0</EPHEMERIS_TYPE><CLASSIFICATION_TYPE>U</CLASSIFICATION_TYPE><NORAD_CAT_ID>48975</NORAD_CAT_ID><ELEMENT_SET_NO>999</ELEMENT_SET_NO><REV_AT_EPOCH>17006</REV_AT_EPOCH><BSTAR>.13719E-3</BSTAR><MEAN_MOTION_DOT>.65E-6</MEAN_MOTION_DOT><MEAN_MOTION_DDOT>0</MEAN_MOTION_DDOT></tleParameters></data></segment></body></omm>

</ndm>
