ONEWEB-0249             
1 48967U 21060A   25004.87321914 -.00000366  00000+0 -99042-3 0  9992
2 48967  87.9103 334.0414 0001806  85.3496 274.7841 13.16594561170094
ONEWEB-0250             
1 48968U 21060B   25004.86611927  .00000150  00000+0  31345-3 0  9999
2 48968  87.9103 333.5238 0001843 120.3438 239.7880 13.25696967170211
ONEWEB-0252             
1 48970U 21060D   25004.90489078  .00000149  00000+0  35576-3 0  9995
2 48970  87.9106 334.0284 0001737  71.4994 288.6325 13.16592744170146
ONEWEB-0253             
1 48971U 21060E   25004.96982364  .00000036  00000+0  61241-4 0  9992
2 48971  87.9101 334.0232 0001518  85.7536 274.3768 13.16594636170080
ONEWEB-0254             
1 48972U 21060F   25004.82730416  .00000172  00000+0  41658-3 0  9997
2 48972  87.9104 334.0329 0001447  99.5499 260.5796 13.16597156170069
ONEWEB-0255             
1 48973U 21060G   25004.86530245 -.00000257  00000+0 -70468-3 0  9997
2 48973  87.9104 334.0589 0001573  93.2569 266.8742 13.16594746171431
ONEWEB-0256             
1 48974U 21060H   25004.89141816  .00000677  00000+0  17373-2 0  9992
2 48974  87.9148 334.0639 0002506  76.9806 283.1605 13.16606707171403
ONEWEB-0257             
1 48975U 21060J   25004.84788892  .00000065  00000+0  13719-3 0  9991
2 48975  87.9100 334.0373 0001581  79.3881 280.7428 13.16597627170066
